NORAD_CAT_ID,OBJECT_NAME,OBJECT_TYPE,EPOCH,MEAN_MOTION,ECCENTRICITY,INCLINATION,RA_OF_ASC_NODE,ARG_OF_PERICENTER,MEAN_ANOMALY,BSTAR,MEAN_MOTION_DOT,MEAN_MOTION_DDOT,TLE_LINE0,TLE_LINE1,TLE_LINE2,SEMIMAJOR_AXIS,PERIOD,APOGEE,PERIGEE,DECAYED
53400.0,STARLINK-4520,PAYLOAD,2024-03-10 05:34:53,15.08837676,0.0001721,53.2151,158.78,88.1389,271.98,0.00037152,5.629e-05,0.0,0 STARLINK-4520,1 53400U 22097N   24070.23256029  .00005629  00000-0  37152-3 0  9997,2 53400  53.2151 158.7800 0001721  88.1389 271.9800 15.08837676 87900,6917.887,95.438,540.943,538.562,0.0
53400.0,STARLINK-4520,PAYLOAD,2024-03-10 11:56:25,15.08841503,0.0001553,53.2141,157.5908,86.854,273.263,0.00032589,4.903e-05,0.0,0 STARLINK-4520,1 53400U 22097N   24070.49751929  .00004903  00000-0  32589-3 0  9997,2 53400  53.2141 157.5908 0001553  86.8540 273.2630 15.08841503 88431,6917.876,95.437,540.815,538.666,0.0
53400.0,STARLINK-4520,PAYLOAD,2024-03-11 11:47:12,15.08845609,0.0001536,53.2159,153.1297,97.7156,262.401,0.00027072,4.024e-05,0.0,0 STARLINK-4520,1 53400U 22097N   24071.49111830  .00004024  00000-0  27072-3 0  9994,2 53400  53.2159 153.1297 0001536  97.7156 262.4010 15.08845609 88093,6917.863,95.437,540.791,538.666,0.0
53400.0,STARLINK-4520,PAYLOAD,2024-03-12 05:16:27,15.08838734,0.0001521,53.2145,149.8578,97.4166,262.6999,8.9427e-05,1.135e-05,0.0,0 STARLINK-4520,1 53400U 22097N   24072.21976103  .00001135  00000-0  89427-4 0  9990,2 53400  53.2145 149.8578 0001521  97.4166 262.6999 15.08838734 88206,6917.884,95.438,540.801,538.697,0.0
53400.0,STARLINK-4520,PAYLOAD,2024-03-12 14:48:46,15.0884361,0.0001476,53.2158,148.0743,86.8048,273.3113,0.00012127,1.643e-05,0.0,0 STARLINK-4520,1 53400U 22097N   24072.61720022  .00001643  00000-0  12127-3 0  9997,2 53400  53.2158 148.0743 0001476  86.8048 273.3113 15.08843610 88751,6917.869,95.437,540.755,538.713,0.0
53400.0,STARLINK-4520,PAYLOAD,2024-03-13 11:28:47,15.08842402,0.0001493,53.2163,144.2094,86.2672,273.8491,0.00012849,1.758e-05,0.0,0 STARLINK-4520,1 53400U 22097N   24073.47832179  .00001758  00000-0  12849-3 0  9997,2 53400  53.2163 144.2094 0001493  86.2672 273.8491 15.08842402 88392,6917.873,95.437,540.771,538.705,0.0
53400.0,STARLINK-4520,PAYLOAD,2024-03-14 04:58:01,15.08842134,0.0001516,53.2152,140.9367,82.8588,277.2576,0.00012088,1.636e-05,0.0,0 STARLINK-4520,1 53400U 22097N   24074.20696178  .00001636  00000-0  12088-3 0  9996,2 53400  53.2152 140.9367 0001516  82.8588 277.2576 15.08842134 88990,6917.874,95.437,540.788,538.69,0.0
53400.0,STARLINK-4520,PAYLOAD,2024-03-14 09:44:10,15.08847111,0.0001536,53.2153,140.0449,83.0917,277.025,0.00017814,2.549e-05,0.0,0 STARLINK-4520,1 53400U 22097N   24074.40567878  .00002549  00000-0  17814-3 0  9998,2 53400  53.2153 140.0449 0001536  83.0917 277.0250 15.08847111 89026,6917.859,95.437,540.786,538.661,0.0
53400.0,STARLINK-4520,PAYLOAD,2024-03-15 03:13:25,15.08838526,0.0001675,53.216,136.7785,86.6871,273.4312,4.9834e-05,5.05e-06,0.0,0 STARLINK-4520,1 53400U 22097N   24075.13431923  .00000505  00000-0  49834-4 0  9998,2 53400  53.2160 136.7785 0001675  86.6871 273.4312 15.08838526 88647,6917.885,95.438,540.909,538.591,0.0
53400.0,STARLINK-4520,PAYLOAD,2024-03-15 11:10:21,15.08836479,0.0001597,53.217,135.2894,98.4431,261.6742,2.7482e-05,1.49e-06,0.0,0 STARLINK-4520,1 53400U 22097N   24075.46552664  .00000149  00000-0  27482-4 0  9999,2 53400  53.2170 135.2894 0001597  98.4431 261.6742 15.08836479 88695,6917.891,95.438,540.861,538.651,0.0
53400.0,STARLINK-4520,PAYLOAD,2024-03-16 12:36:32,15.08839432,0.0001889,53.2169,130.5302,99.78,260.3405,-6.5257e-05,-1.327e-05,0.0,0 STARLINK-4520,1 53400U 22097N   24076.52537077 -.00001327  00000-0 -65257-4 0  9991,2 53400  53.2169 130.5302 0001889  99.7800 260.3405 15.08839432 88855,6917.882,95.438,541.054,538.44,0.0
53400.0,STARLINK-4520,PAYLOAD,2024-03-17 10:51:55,15.08843788,0.0001535,53.2167,126.3679,89.868,270.2489,0.00014659,2.046e-05,0.0,0 STARLINK-4520,1 53400U 22097N   24077.45272429  .00002046  00000-0  14659-3 0  9997,2 53400  53.2167 126.3679 0001535  89.8680 270.2489 15.08843788 88993,6917.869,95.437,540.796,538.672,0.0
53400.0,STARLINK-4520,PAYLOAD,2024-03-18 12:18:05,15.08846633,0.0001556,53.2165,121.6101,84.717,275.4,0.00014399,2.005e-05,0.0,0 STARLINK-4520,1 53400U 22097N   24078.51256334  .00002005  00000-0  14399-3 0  9998,2 53400  53.2165 121.6101 0001556  84.7170 275.4000 15.08846633 89157,6917.86,95.437,540.802,538.649,0.0
53400.0,STARLINK-4520,PAYLOAD,2024-03-19 02:36:34,15.08844889,0.0001553,53.2153,118.9316,95.3289,264.788,-1.2026e-05,-4.79e-06,0.0,0 STARLINK-4520,1 53400U 22097N   24079.10872731 -.00000479  00000-0 -12026-4 0  9990,2 53400  53.2153 118.9316 0001553  95.3289 264.7880 15.08844889 89245,6917.865,95.437,540.805,538.656,0.0
53400.0,STARLINK-4520,PAYLOAD,2024-03-19 08:58:06,15.08846327,0.000159,53.2158,117.744,85.1781,274.9392,4.0125e-05,3.51e-06,0.0,0 STARLINK-4520,1 53400U 22097N   24079.37368508  .00000351  00000-0  40125-4 0  9999,2 53400  53.2158 117.7440 0001590  85.1781 274.9392 15.08846327 89778,6917.861,95.437,540.826,538.626,0.0
53400.0,STARLINK-4520,PAYLOAD,2024-03-20 02:27:20,15.08800551,0.0001805,53.2151,114.4718,102.3581,257.7613,0.00066151,0.00010244,0.0,0 STARLINK-4520,1 53400U 22097N   24080.10232576  .00010244  00000-0  66151-3 0  9995,2 53400  53.2151 114.4718 0001805 102.3581 257.7613 15.08800551 89394,6918.001,95.44,541.115,538.617,0.0
53400.0,STARLINK-4520,PAYLOAD,2024-03-20 08:48:53,15.08849692,0.0001455,53.2158,113.2813,102.9586,257.1569,2.3205e-05,8.1e-07,0.0,0 STARLINK-4520,1 53400U 22097N   24080.36728014  .00000081  00000-0  23205-4 0  9992,2 53400  53.2158 113.2813 0001455 102.9586 257.1569 15.08849692 89434,6917.851,95.437,540.722,538.709,0.0
53400.0,STARLINK-4520,PAYLOAD,2024-03-20 11:59:39,15.08850642,0.0001515,53.2163,112.6862,102.2898,257.8264,6.2075e-05,7e-06,0.0,0 STARLINK-4520,1 53400U 22097N   24080.49975839  .00000700  00000-0  62075-4 0  9991,2 53400  53.2163 112.6862 0001515 102.2898 257.8264 15.08850642 89945,6917.848,95.437,540.761,538.665,0.0
53400.0,STARLINK-4520,PAYLOAD,2024-03-21 05:28:54,15.08847107,0.0001767,53.2175,109.4183,108.8294,251.289,-0.00015211,-2.709e-05,0.0,0 STARLINK-4520,1 53400U 22097N   24081.22840766 -.00002709  00000-0 -15211-3 0  9995,2 53400  53.2175 109.4183 0001767 108.8294 251.2890 15.08847107 89562,6917.859,95.437,540.946,538.501,0.0
53400.0,STARLINK-4520,PAYLOAD,2024-03-21 08:39:40,15.08841273,0.0001361,53.2159,108.8184,95.6526,264.4621,-1.7503e-05,-5.66e-06,0.0,0 STARLINK-4520,1 53400U 22097N   24081.36088692 -.00000566  00000-0 -17503-4 0  9998,2 53400  53.2159 108.8184 0001361  95.6526 264.4621 15.08841273 90073,6917.876,95.437,540.683,538.8,0.0
53400.0,STARLINK-4520,PAYLOAD,2024-03-21 18:11:59,15.08838802,0.000154,53.2165,107.0375,95.1784,264.9384,3.7175e-05,3.04e-06,0.0,0 STARLINK-4520,1 53400U 22097N   24081.75832905  .00000304  00000-0  37175-4 0  9990,2 53400  53.2165 107.0375 0001540  95.1784 264.9384 15.08838802 90135,6917.884,95.438,540.814,538.684,0.0
53400.0,STARLINK-4520,PAYLOAD,2024-03-22 06:55:04,15.08848919,0.0001501,53.2164,104.6592,89.2831,270.8333,0.00014063,1.951e-05,0.0,0 STARLINK-4520,1 53400U 22097N   24082.28824097  .00001951  00000-0  14063-3 0  9991,2 53400  53.2164 104.6592 0001501  89.2831 270.8333 15.08848919 89725,6917.853,95.437,540.756,538.68,0.0
53400.0,STARLINK-4520,PAYLOAD,2024-03-23 05:10:29,15.08831819,0.0001843,53.2149,100.4937,101.0118,259.1082,3.7847e-07,-2.82e-06,0.0,0 STARLINK-4520,1 53400U 22097N   24083.21561421 -.00000282  00000-0  37847-6 0  9999,2 53400  53.2149 100.4937 0001843 101.0118 259.1082 15.08831819 89862,6917.905,95.438,541.045,538.495,0.0
53400.0,STARLINK-4520,PAYLOAD,2024-03-23 17:53:34,15.08838454,0.000153,53.2158,98.1169,93.0073,267.1094,8.3811e-05,1.046e-05,0.0,0 STARLINK-4520,1 53400U 22097N   24083.74553342  .00001046  00000-0  83811-4 0  9998,2 53400  53.2158  98.1169 0001530  93.0073 267.1094 15.08838454 90434,6917.885,95.438,540.809,538.692,0.0
53400.0,STARLINK-4520,PAYLOAD,2024-03-24 05:01:15,15.08843417,0.0001292,53.2155,96.0326,87.9038,272.2102,0.00019316,2.788e-05,0.0,0 STARLINK-4520,1 53400U 22097N   24084.20921078  .00002788  00000-0  19316-3 0  9997,2 53400  53.2155  96.0326 0001292  87.9038 272.2102 15.08843417 90017,6917.87,95.437,540.629,538.841,0.0
53400.0,STARLINK-4520,PAYLOAD,2024-03-24 09:47:24,15.08852644,0.0001782,53.2157,95.1408,97.9666,262.1528,0.00032972,4.965e-05,0.0,0 STARLINK-4520,1 53400U 22097N   24084.40792774  .00004965  00000-0  32972-3 0  9990,2 53400  53.2157  95.1408 0001782  97.9666 262.1528 15.08852644 90531,6917.842,95.437,540.94,538.474,0.0
53400.0,STARLINK-4520,PAYLOAD,2024-03-25 06:27:26,15.08840845,0.0001749,53.2155,91.2758,97.6017,262.5174,0.00022007,3.216e-05,0.0,0 STARLINK-4520,1 53400U 22097N   24085.26905687  .00003216  00000-0  22007-3 0  9990,2 53400  53.2155  91.2758 0001749  97.6017 262.5174 15.08840845 90175,6917.878,95.438,540.953,538.533,0.0
53400.0,STARLINK-4520,PAYLOAD,2024-03-25 17:35:08,15.08830106,0.0001565,53.2154,89.1935,96.9774,263.1396,0.00039205,5.955e-05,0.0,0 STARLINK-4520,1 53400U 22097N   24085.73274265  .00005955  00000-0  39205-3 0  9993,2 53400  53.2154  89.1935 0001565  96.9774 263.1396 15.08830106 90245,6917.911,95.438,540.858,538.693,0.0
53400.0,STARLINK-4520,PAYLOAD,2024-03-26 09:29:00,15.08834977,0.000159,53.2156,86.2184,103.5603,256.5567,0.00068176,0.00010577,0.0,0 STARLINK-4520,1 53400U 22097N   24086.39514657  .00010577  00000-0  68176-3 0  9993,2 53400  53.2156  86.2184 0001590 103.5603 256.5567 15.08834977 90836,6917.896,95.438,540.861,538.661,0.0
53400.0,STARLINK-4520,PAYLOAD,2024-03-26 17:25:56,15.08837256,0.0001572,53.2158,84.7321,102.8984,257.2184,0.00071195,0.0001106,0.0,0 STARLINK-4520,1 53400U 22097N   24086.72634861  .00011060  00000-0  71195-3 0  9993,2 53400  53.2158  84.7321 0001572 102.8984 257.2184 15.08837256 90889,6917.889,95.438,540.841,538.666,0.0
